STARLINK-36891          
1 68024U 26040K   26068.91668981 -.01177045  47460-3 -16542-2 0  9993
2 68024  97.2769  17.1202 0000938  98.8495 272.5605 16.05860831  2465
STARLINK-36251          
1 68093U 26042AA  26068.75002315 -.01268866  53365-3 -19380-2 0  9992
2 68093  53.1604 194.9533 0000743  57.3068  18.1740 16.03783774  2058
