[{"OBJECT_NAME":"STARLINK-36891","OBJECT_ID":"2026-040K","EPOCH":"2026-03-09T22:00:01.999584","MEAN_MOTION":16.05860831,"ECCENTRICITY":9.38e-5,"INCLINATION":97.2769,"RA_OF_ASC_NODE":17.1202,"ARG_OF_PERICENTER":98.8495,"MEAN_ANOMALY":272.5605,"EPHEMERIS_TYPE":0,"CLASSIFICATION_TYPE":"U","NORAD_CAT_ID":68024,"ELEMENT_SET_NO":999,"REV_AT_EPOCH":246,"BSTAR":-0.0016541504,"MEAN_MOTION_DOT":-0.01177045,"MEAN_MOTION_DDOT":0.0004746005},{"OBJECT_NAME":"OBJECT AA","OBJECT_ID":"2026-042AA","EPOCH":"2026-03-09T18:00:02.000160","MEAN_MOTION":16.03783774,"ECCENTRICITY":7.436e-5,"INCLINATION":53.1604,"RA_OF_ASC_NODE":194.9533,"ARG_OF_PERICENTER":57.3068,"MEAN_ANOMALY":18.174,"EPHEMERIS_TYPE":0,"CLASSIFICATION_TYPE":"U","NORAD_CAT_ID":68093,"ELEMENT_SET_NO":999,"REV_AT_EPOCH":205,"BSTAR":-0.0019379955,"MEAN_MOTION_DOT":-0.01268866,"MEAN_MOTION_DDOT":0.00053365254}]
